start=new Date('2023-02-17T00:00:00.000Z').valueOf();
sats=[{"SITE":"AFETR","PERIAPSIS":"546.482","MEAN_MOTION_DDOT":"0.0000000000000","BSTAR":"0.00191310000000","REF_FRAME":"TEME","FILE":"3799178","RA_OF_ASC_NODE":"171.1446","CLASSIFICATION_TYPE":"U","ECCENTRICITY":"0.00009250","MEAN_ANOMALY":"249.1357","EPOCH":"2023-02-16T17:12:29.333088","CENTER_NAME":"EARTH","GP_ID":"225685309","MEAN_MOTION":"15.06429583","COUNTRY_CODE":"US","LAUNCH_DATE":"2021-03-04","TLE_LINE1":"1 47722U 21017A   23047.71700617  .00028352  00000-0  19131-2 0  9995","PERIOD":"95.590","APOAPSIS":"547.763","EPHEMERIS_TYPE":"0","ARG_OF_PERICENTER":"110.9731","INCLINATION":"53.0527","MEAN_ELEMENT_THEORY":"SGP4","SEMIMAJOR_AXIS":"6925.258","NORAD_CAT_ID":"47722","RCS_SIZE":"LARGE","ELEMENT_SET_NO":"999","TIME_SYSTEM":"UTC","DECAY_DATE":null,"OBJECT_TYPE":"PAYLOAD","MEAN_MOTION_DOT":"0.00028352","TLE_LINE2":"2 47722  53.0527 171.1446 0000925 110.9731 249.1357 15.06429583109631","OBJECT_NAME":"STARLINK-2068","REV_AT_EPOCH":"10963","OBJECT_ID":"2021-017A"},{"FILE":"3799178","REF_FRAME":"TEME","MEAN_MOTION_DDOT":"0.0000000000000","BSTAR":"-0.00084719000000","PERIAPSIS":"544.082","SITE":"AFETR","COUNTRY_CODE":"US","GP_ID":"225684059","MEAN_MOTION":"15.06372888","CENTER_NAME":"EARTH","EPOCH":"2023-02-16T20:34:49.397952","ECCENTRICITY":"0.00046420","CLASSIFICATION_TYPE":"U","MEAN_ANOMALY":"266.8625","RA_OF_ASC_NODE":"105.2699","SEMIMAJOR_AXIS":"6925.432","MEAN_ELEMENT_THEORY":"SGP4","NORAD_CAT_ID":"47723","ARG_OF_PERICENTER":"93.2895","INCLINATION":"53.0518","EPHEMERIS_TYPE":"0","PERIOD":"95.594","APOAPSIS":"550.511","TLE_LINE1":"1 47723U 21017B   23047.85751618 -.00012873  00000-0 -84719-3 0  9996","LAUNCH_DATE":"2021-03-04","OBJECT_ID":"2021-017B","REV_AT_EPOCH":"11053","OBJECT_NAME":"STARLINK-2107","MEAN_MOTION_DOT":"-0.00012873","TLE_LINE2":"2 47723  53.0518 105.2699 0004642  93.2895 266.8625 15.06372888110534","OBJECT_TYPE":"PAYLOAD","DECAY_DATE":null,"ELEMENT_SET_NO":"999","TIME_SYSTEM":"UTC","RCS_SIZE":"LARGE"},{"TLE_LINE2":"2 47724  53.0525 106.6042 0001676  81.2894 278.8284 15.06427819110450","MEAN_MOTION_DOT":"0.00002970","OBJECT_NAME":"STARLINK-2116","REV_AT_EPOCH":"11045","OBJECT_ID":"2021-017C","RCS_SIZE":"LARGE","TIME_SYSTEM":"UTC","ELEMENT_SET_NO":"999","DECAY_DATE":null,"OBJECT_TYPE":"PAYLOAD","ARG_OF_PERICENTER":"81.2894","INCLINATION":"53.0525","SEMIMAJOR_AXIS":"6925.263","NORAD_CAT_ID":"47724","MEAN_ELEMENT_THEORY":"SGP4","LAUNCH_DATE":"2021-03-04","TLE_LINE1":"1 47724U 21017C   23047.56261767  .00002970  00000-0  21802-3 0  9995","APOAPSIS":"548.289","PERIOD":"95.590","EPHEMERIS_TYPE":"0","COUNTRY_CODE":"US","RA_OF_ASC_NODE":"106.6042","MEAN_ANOMALY":"278.8284","ECCENTRICITY":"0.00016760","CLASSIFICATION_TYPE":"U","CENTER_NAME":"EARTH","EPOCH":"2023-02-16T13:30:10.166688","MEAN_MOTION":"15.06427819","GP_ID":"225639792","BSTAR":"0.00021802000000","MEAN_MOTION_DDOT":"0.0000000000000","REF_FRAME":"TEME","FILE":"3798293","SITE":"AFETR","PERIAPSIS":"545.968"},{"COUNTRY_CODE":"US","CLASSIFICATION_TYPE":"U","ECCENTRICITY":"0.00012150","MEAN_ANOMALY":"263.1058","RA_OF_ASC_NODE":"176.7426","GP_ID":"225652006","MEAN_MOTION":"15.06381517","CENTER_NAME":"EARTH","EPOCH":"2023-02-16T12:43:47.422272","REF_FRAME":"TEME","MEAN_MOTION_DDOT":"0.0000000000000","BSTAR":"-0.00011529000000","FILE":"3798655","PERIAPSIS":"546.429","SITE":"AFETR","MEAN_MOTION_DOT":"-0.00001997","TLE_LINE2":"2 47725  53.0518 176.7426 0001215  97.0069 263.1058 15.06381517108856","OBJECT_ID":"2021-017D","OBJECT_NAME":"STARLINK-2125","REV_AT_EPOCH":"10885","ELEMENT_SET_NO":"999","TIME_SYSTEM":"UTC","RCS_SIZE":"LARGE","OBJECT_TYPE":"PAYLOAD","DECAY_DATE":null,"ARG_OF_PERICENTER":"97.0069","INCLINATION":"53.0518","SEMIMAJOR_AXIS":"6925.405","NORAD_CAT_ID":"47725","MEAN_ELEMENT_THEORY":"SGP4","TLE_LINE1":"1 47725U 21017D   23047.53040998 -.00001997  00000-0 -11529-3 0  9999","LAUNCH_DATE":"2021-03-04","EPHEMERIS_TYPE":"0","PERIOD":"95.593","APOAPSIS":"548.112"},{"OBJECT_TYPE":"PAYLOAD","DECAY_DATE":null,"ELEMENT_SET_NO":"999","TIME_SYSTEM":"UTC","RCS_SIZE":"MEDIUM","OBJECT_ID":"2021-017E","OBJECT_NAME":"STARLINK-2126","REV_AT_EPOCH":"10952","MEAN_MOTION_DOT":"0.00051056","TLE_LINE2":"2 47726  53.0506 175.3218 0001271  66.1662 293.9460 15.06460156109526","EPHEMERIS_TYPE":"0","PERIOD":"95.588","APOAPSIS":"547.909","TLE_LINE1":"1 47726U 21017E   23047.84735997  .00051056  00000-0  34162-2 0  9990","LAUNCH_DATE":"2021-03-04","SEMIMAJOR_AXIS":"6925.164","MEAN_ELEMENT_THEORY":"SGP4","NORAD_CAT_ID":"47726","ARG_OF_PERICENTER":"66.1662","INCLINATION":"53.0506","GP_ID":"225684809","MEAN_MOTION":"15.06460156","EPOCH":"2023-02-16T20:20:11.901408","CENTER_NAME":"EARTH","CLASSIFICATION_TYPE":"U","ECCENTRICITY":"0.00012710","MEAN_ANOMALY":"293.9460","RA_OF_ASC_NODE":"175.3218","COUNTRY_CODE":"US","PERIAPSIS":"546.149","SITE":"AFETR","FILE":"3799178","REF_FRAME":"TEME","MEAN_MOTION_DDOT":"0.0000000000000","BSTAR":"0.00341620000000"},{"LAUNCH_DATE":"2021-03-04","TLE_LINE1":"1 47727U 21017F   23047.86483891  .00003664  00000-0  26457-3 0  9997","PERIOD":"95.591","APOAPSIS":"548.217","EPHEMERIS_TYPE":"0","INCLINATION":"53.0542","ARG_OF_PERICENTER":"75.9933","SEMIMAJOR_AXIS":"6925.280","NORAD_CAT_ID":"47727","MEAN_ELEMENT_THEORY":"SGP4","RCS_SIZE":"LARGE","ELEMENT_SET_NO":"999","TIME_SYSTEM":"UTC","DECAY_DATE":null,"OBJECT_TYPE":"PAYLOAD","MEAN_MOTION_DOT":"0.00003664","TLE_LINE2":"2 47727  53.0542  95.2473 0001549  75.9933 284.1228 15.06422522110023","OBJECT_NAME":"STARLINK-2129","REV_AT_EPOCH":"11002","OBJECT_ID":"2021-017F","SITE":"AFETR","PERIAPSIS":"546.072","MEAN_MOTION_DDOT":"0.0000000000000","BSTAR":"0.00026457000000","REF_FRAME":"TEME","FILE":"3798737","RA_OF_ASC_NODE":"95.2473","CLASSIFICATION_TYPE":"U","ECCENTRICITY":"0.00015490","MEAN_ANOMALY":"284.1228","CENTER_NAME":"EARTH","EPOCH":"2023-02-16T20:45:22.081824","GP_ID":"225653568","MEAN_MOTION":"15.06422522","COUNTRY_CODE":"US"},{"COUNTRY_CODE":"US","GP_ID":"225653318","MEAN_MOTION":"15.06424275","EPOCH":"2023-02-16T19:43:03.049248","CENTER_NAME":"EARTH","CLASSIFICATION_TYPE":"U","ECCENTRICITY":"0.00013350","MEAN_ANOMALY":"283.2747","RA_OF_ASC_NODE":"175.4295","FILE":"3798743","REF_FRAME":"TEME","MEAN_MOTION_DDOT":"0.0000000000000","BSTAR":"0.00060500000000","PERIAPSIS":"546.215","SITE":"AFETR","OBJECT_ID":"2021-017G","OBJECT_NAME":"STARLINK-2131","REV_AT_EPOCH":"10890","MEAN_MOTION_DOT":"0.00008747","TLE_LINE2":"2 47728  53.0513 175.4295 0001335  76.8391 283.2747 15.06424275108903","OBJECT_TYPE":"PAYLOAD","DECAY_DATE":null,"ELEMENT_SET_NO":"999","TIME_SYSTEM":"UTC","RCS_SIZE":"LARGE","NORAD_CAT_ID":"47728","SEMIMAJOR_AXIS":"6925.274","MEAN_ELEMENT_THEORY":"SGP4","ARG_OF_PERICENTER":"76.8391","INCLINATION":"53.0513","EPHEMERIS_TYPE":"0","PERIOD":"95.591","APOAPSIS":"548.064","TLE_LINE1":"1 47728U 21017G   23047.82156307  .00008747  00000-0  60500-3 0  9997","LAUNCH_DATE":"2021-03-04"},{"BSTAR":"0.00321210000000","MEAN_MOTION_DDOT":"0.0000000000000","REF_FRAME":"TEME","FILE":"3799178","SITE":"AFETR","PERIAPSIS":"545.789","COUNTRY_CODE":"US","RA_OF_ASC_NODE":"121.1085","MEAN_ANOMALY":"307.1891","ECCENTRICITY":"0.00017950","CLASSIFICATION_TYPE":"U","CENTER_NAME":"EARTH","EPOCH":"2023-02-16T17:13:48.063360","MEAN_MOTION":"15.06459175","GP_ID":"225684561","ARG_OF_PERICENTER":"52.9262","INCLINATION":"53.0516","SEMIMAJOR_AXIS":"6925.167","MEAN_ELEMENT_THEORY":"SGP4","NORAD_CAT_ID":"47729","LAUNCH_DATE":"2021-03-04","TLE_LINE1":"1 47729U 21017H   23047.71791740  .00047967  00000-0  32121-2 0  9996","APOAPSIS":"548.275","PERIOD":"95.588","EPHEMERIS_TYPE":"0","TLE_LINE2":"2 47729  53.0516 121.1085 0001795  52.9262 307.1891 15.06459175110270","MEAN_MOTION_DOT":"0.00047967","OBJECT_NAME":"STARLINK-2132","REV_AT_EPOCH":"11027","OBJECT_ID":"2021-017H","RCS_SIZE":"LARGE","TIME_SYSTEM":"UTC","ELEMENT_SET_NO":"999","DECAY_DATE":null,"OBJECT_TYPE":"PAYLOAD"},{"RA_OF_ASC_NODE":"194.5119","MEAN_ANOMALY":"277.4193","CLASSIFICATION_TYPE":"U","ECCENTRICITY":"0.00013540","EPOCH":"2023-02-15T21:58:01.140672","CENTER_NAME":"EARTH","MEAN_MOTION":"15.06425777","GP_ID":"225638792","COUNTRY_CODE":"US","SITE":"AFETR","PERIAPSIS":"546.197","BSTAR":"0.00148830000000","MEAN_MOTION_DDOT":"0.0000000000000","REF_FRAME":"TEME","FILE":"3798293","RCS_SIZE":"LARGE","TIME_SYSTEM":"UTC","ELEMENT_SET_NO":"999","DECAY_DATE":null,"OBJECT_TYPE":"PAYLOAD","TLE_LINE2":"2 47730  53.0524 194.5119 0001354  82.6949 277.4193 15.06425777109189","MEAN_MOTION_DOT":"0.00021972","REV_AT_EPOCH":"10918","OBJECT_NAME":"STARLINK-2140","OBJECT_ID":"2021-017J","LAUNCH_DATE":"2021-03-04","TLE_LINE1":"1 47730U 21017J   23046.91529098  .00021972  00000-0  14883-2 0  9997","APOAPSIS":"548.072","PERIOD":"95.591","EPHEMERIS_TYPE":"0","ARG_OF_PERICENTER":"82.6949","INCLINATION":"53.0524","MEAN_ELEMENT_THEORY":"SGP4","SEMIMAJOR_AXIS":"6925.270","NORAD_CAT_ID":"47730"},{"OBJECT_ID":"2021-017K","OBJECT_NAME":"STARLINK-2141","REV_AT_EPOCH":"10941","MEAN_MOTION_DOT":"0.00045254","TLE_LINE2":"2 47731  53.0506 185.0093 0001282  81.2857 278.8277 15.06445603109413","OBJECT_TYPE":"PAYLOAD","DECAY_DATE":null,"ELEMENT_SET_NO":"999","TIME_SYSTEM":"UTC","RCS_SIZE":"LARGE","MEAN_ELEMENT_THEORY":"SGP4","SEMIMAJOR_AXIS":"6925.209","NORAD_CAT_ID":"47731","INCLINATION":"53.0506","ARG_OF_PERICENTER":"81.2857","EPHEMERIS_TYPE":"0","PERIOD":"95.589","APOAPSIS":"547.962","TLE_LINE1":"1 47731U 21017K   23047.91647692  .00045254  00000-0  30338-2 0  9992","LAUNCH_DATE":"2021-03-04","COUNTRY_CODE":"US","GP_ID":"225684060","MEAN_MOTION":"15.06445603","CENTER_NAME":"EARTH","EPOCH":"2023-02-16T21:59:43.605888","CLASSIFICATION_TYPE":"U","ECCENTRICITY":"0.00012820","MEAN_ANOMALY":"278.8277","RA_OF_ASC_NODE":"185.0093","FILE":"3799178","REF_FRAME":"TEME","MEAN_MOTION_DDOT":"0.0000000000000","BSTAR":"0.00303380000000","PERIAPSIS":"546.186","SITE":"AFETR"}];
